{
  "type": "FeatureCollection",
  "features": [
    {
      "type": "Feature",
      "properties": {
        "norad_id": 33972,
        "name": "COSMOS 2251 DEB",
        "group": "cosmos-2251-debris",
        "lat": 43.951839302146695,
        "lon": -137.7655053324912,
        "alt_km": 691.2591140689474,
        "timestamp": "2025-12-04T07:39:36.525128+00:00",
        "meta_object_name": "COSMOS 2251 DEB",
        "meta_object_id": "1993-036FF",
        "meta_epoch": "2025-12-02T23:58:48.154080",
        "meta_mean_motion": 14.36111231,
        "meta_eccentricity": 0.01229339,
        "meta_inclination": 73.9949,
        "meta_ra_of_asc_node": 208.5999,
        "meta_arg_of_pericenter": 18.5394,
        "meta_mean_anomaly": 45.3363,
        "meta_ephemeris_type": 0,
        "meta_classification_type": "U",
        "meta_norad_cat_id": 33972,
        "meta_element_set_no": 999,
        "meta_rev_at_epoch": 86934,
        "meta_bstar": 0.0015103447,
        "meta_mean_motion_dot": 4.77e-05,
        "meta_mean_motion_ddot": 0,
        "tle_line1": "1 33972U 93036FF  25336.99916845  .00004770  00000+0  15103-2 0  9994",
        "tle_line2": "2 33972  73.9949 208.5999 0122933  18.5394  45.3363 14.36111231869346"
      },
      "geometry": {
        "type": "Point",
        "coordinates": [
          -137.7655053324912,
          43.951839302146695
        ]
      }
    },
    {
      "type": "Feature",
      "properties": {
        "norad_id": 33973,
        "name": "COSMOS 2251 DEB",
        "group": "cosmos-2251-debris",
        "lat": -53.86668154323304,
        "lon": -38.255043054886166,
        "alt_km": 731.299278725357,
        "timestamp": "2025-12-04T07:39:36.525137+00:00",
        "meta_object_name": "COSMOS 2251 DEB",
        "meta_object_id": "1993-036FG",
        "meta_epoch": "2025-12-03T12:37:21.660960",
        "meta_mean_motion": 14.45373918,
        "meta_eccentricity": 0.00471304,
        "meta_inclination": 74.0071,
        "meta_ra_of_asc_node": 120.0955,
        "meta_arg_of_pericenter": 300.2413,
        "meta_mean_anomaly": 131.5575,
        "meta_ephemeris_type": 0,
        "meta_classification_type": "U",
        "meta_norad_cat_id": 33973,
        "meta_element_set_no": 999,
        "meta_rev_at_epoch": 88467,
        "meta_bstar": 0.00022400729,
        "meta_mean_motion_dot": 7.7e-06,
        "meta_mean_motion_ddot": 0,
        "tle_line1": "1 33973U 93036FG  25337.52594515  .00000770  00000+0  22401-3 0  9997",
        "tle_line2": "2 33973  74.0071 120.0955 0047130 300.2413 131.5575 14.45373918884671"
      },
      "geometry": {
        "type": "Point",
        "coordinates": [
          -38.255043054886166,
          -53.86668154323304
        ]
      }
    },
    {
      "type": "Feature",
      "properties": {
        "norad_id": 33975,
        "name": "COSMOS 2251 DEB",
        "group": "cosmos-2251-debris",
        "lat": 72.72556771132417,
        "lon": -149.9338091101527,
        "alt_km": 985.9469370732895,
        "timestamp": "2025-12-04T07:39:36.525146+00:00",
        "meta_object_name": "COSMOS 2251 DEB",
        "meta_object_id": "1993-036FJ",
        "meta_epoch": "2025-12-03T17:28:22.329408",
        "meta_mean_motion": 14.00490564,
        "meta_eccentricity": 0.01914768,
        "meta_inclination": 73.8012,
        "meta_ra_of_asc_node": 100.2933,
        "meta_arg_of_pericenter": 234.5605,
        "meta_mean_anomaly": 123.7522,
        "meta_ephemeris_type": 0,
        "meta_classification_type": "U",
        "meta_norad_cat_id": 33975,
        "meta_element_set_no": 999,
        "meta_rev_at_epoch": 85703,
        "meta_bstar": 0.0010438806,
        "meta_mean_motion_dot": 1.79e-05,
        "meta_mean_motion_ddot": 0,
        "tle_line1": "1 33975U 93036FJ  25337.72803622  .00001790  00000+0  10439-2 0  9993",
        "tle_line2": "2 33975  73.8012 100.2933 0191476 234.5605 123.7522 14.00490564857039"
      },
      "geometry": {
        "type": "Point",
        "coordinates": [
          -149.9338091101527,
          72.72556771132417
        ]
      }
    },
    {
      "type": "Feature",
      "properties": {
        "norad_id": 33980,
        "name": "COSMOS 2251 DEB",
        "group": "cosmos-2251-debris",
        "lat": -24.40142576670319,
        "lon": 67.9752107078312,
        "alt_km": 711.0427952530445,
        "timestamp": "2025-12-04T07:39:36.525156+00:00",
        "meta_object_name": "COSMOS 2251 DEB",
        "meta_object_id": "1993-036FP",
        "meta_epoch": "2025-12-03T09:00:56.287872",
        "meta_mean_motion": 14.58540369,
        "meta_eccentricity": 0.0029211,
        "meta_inclination": 74.0217,
        "meta_ra_of_asc_node": 77.2408,
        "meta_arg_of_pericenter": 223.7972,
        "meta_mean_anomaly": 198.3757,
        "meta_ephemeris_type": 0,
        "meta_classification_type": "U",
        "meta_norad_cat_id": 33980,
        "meta_element_set_no": 999,
        "meta_rev_at_epoch": 88658,
        "meta_bstar": 0.0012434,
        "meta_mean_motion_dot": 5.789e-05,
        "meta_mean_motion_ddot": 0,
        "tle_line1": "1 33980U 93036FP  25337.37565148  .00005789  00000+0  12434-2 0  9997",
        "tle_line2": "2 33980  74.0217  77.2408 0029211 223.7972 198.3757 14.58540369886581"
      },
      "geometry": {
        "type": "Point",
        "coordinates": [
          67.9752107078312,
          -24.40142576670319
        ]
      }
    },
    {
      "type": "Feature",
      "properties": {
        "norad_id": 33982,
        "name": "COSMOS 2251 DEB",
        "group": "cosmos-2251-debris",
        "lat": 36.12990043148798,
        "lon": -176.05598287087736,
        "alt_km": 679.4194061348235,
        "timestamp": "2025-12-04T07:39:36.525165+00:00",
        "meta_object_name": "COSMOS 2251 DEB",
        "meta_object_id": "1993-036FR",
        "meta_epoch": "2025-12-03T13:29:47.383008",
        "meta_mean_motion": 14.60158699,
        "meta_eccentricity": 0.00748238,
        "meta_inclination": 74.0704,
        "meta_ra_of_asc_node": 17.4192,
        "meta_arg_of_pericenter": 64.6265,
        "meta_mean_anomaly": 59.9887,
        "meta_ephemeris_type": 0,
        "meta_classification_type": "U",
        "meta_norad_cat_id": 33982,
        "meta_element_set_no": 999,
        "meta_rev_at_epoch": 89025,
        "meta_bstar": 0.0004648467,
        "meta_mean_motion_dot": 2.298e-05,
        "meta_mean_motion_ddot": 0,
        "tle_line1": "1 33982U 93036FR  25337.56235397  .00002298  00000+0  46485-3 0  9996",
        "tle_line2": "2 33982  74.0704  17.4192 0074823  64.6265  59.9887 14.60158699890255"
      },
      "geometry": {
        "type": "Point",
        "coordinates": [
          -176.05598287087736,
          36.12990043148798
        ]
      }
    },
    {
      "type": "Feature",
      "properties": {
        "norad_id": 33983,
        "name": "COSMOS 2251 DEB",
        "group": "cosmos-2251-debris",
        "lat": 2.2281555731656733,
        "lon": 163.49819603583498,
        "alt_km": 727.4788039496725,
        "timestamp": "2025-12-04T07:39:36.525174+00:00",
        "meta_object_name": "COSMOS 2251 DEB",
        "meta_object_id": "1993-036FS",
        "meta_epoch": "2025-12-03T22:02:16.255680",
        "meta_mean_motion": 14.50612812,
        "meta_eccentricity": 0.00214163,
        "meta_inclination": 74.0487,
        "meta_ra_of_asc_node": 163.6133,
        "meta_arg_of_pericenter": 267.4778,
        "meta_mean_anomaly": 161.829,
        "meta_ephemeris_type": 0,
        "meta_classification_type": "U",
        "meta_norad_cat_id": 33983,
        "meta_element_set_no": 999,
        "meta_rev_at_epoch": 88501,
        "meta_bstar": 0.00096876609,
        "meta_mean_motion_dot": 3.786e-05,
        "meta_mean_motion_ddot": 0,
        "tle_line1": "1 33983U 93036FS  25337.91824370  .00003786  00000+0  96877-3 0  9994",
        "tle_line2": "2 33983  74.0487 163.6133 0021416 267.4778 161.8290 14.50612812885015"
      },
      "geometry": {
        "type": "Point",
        "coordinates": [
          163.49819603583498,
          2.2281555731656733
        ]
      }
    },
    {
      "type": "Feature",
      "properties": {
        "norad_id": 33984,
        "name": "COSMOS 2251 DEB",
        "group": "cosmos-2251-debris",
        "lat": -6.136891805032632,
        "lon": 1.5949487119989365,
        "alt_km": 690.9816782211929,
        "timestamp": "2025-12-04T07:39:36.525183+00:00",
        "meta_object_name": "COSMOS 2251 DEB",
        "meta_object_id": "1993-036FT",
        "meta_epoch": "2025-12-03T19:24:09.547776",
        "meta_mean_motion": 14.66233692,
        "meta_eccentricity": 0.00236728,
        "meta_inclination": 74.0098,
        "meta_ra_of_asc_node": 4.3472,
        "meta_arg_of_pericenter": 204.636,
        "meta_mean_anomaly": 334.2145,
        "meta_ephemeris_type": 0,
        "meta_classification_type": "U",
        "meta_norad_cat_id": 33984,
        "meta_element_set_no": 999,
        "meta_rev_at_epoch": 88935,
        "meta_bstar": 0.0012886554,
        "meta_mean_motion_dot": 7.104e-05,
        "meta_mean_motion_ddot": 0,
        "tle_line1": "1 33984U 93036FT  25337.80844384  .00007104  00000+0  12887-2 0  9996",
        "tle_line2": "2 33984  74.0098   4.3472 0023672 204.6360 334.2145 14.66233692889355"
      },
      "geometry": {
        "type": "Point",
        "coordinates": [
          1.5949487119989365,
          -6.136891805032632
        ]
      }
    }
  ]
}